STARLINK-34947          
1 65184U 25175L   25246.25002315 -.00315834  00000+0 -60047-2 0  9995
2 65184  97.6038 117.0807 0001942  93.0598 259.8661 15.49354610  4428
STARLINK-34945          
1 65185U 25175M   25246.25002315 -.00307187  00000+0 -58350-2 0  9992
2 65185  97.6038 117.0812 0001985  93.2599 261.5882 15.49349200  4429
STARLINK-34965          
1 65186U 25175N   25246.25002315 -.00265915  00000+0 -50287-2 0  9996
2 65186  97.6039 117.0821 0001967  97.7104 260.9826 15.49326972  4424
STARLINK-34915          
1 65187U 25175P   25246.25002315 -.00283576  00000+0 -53725-2 0  9990
2 65187  97.6041 117.0810 0001895  92.8929 263.8735 15.49339215  4422
STARLINK-34972          
1 65188U 25175Q   25246.25002315 -.00273539  00000+0 -51770-2 0  9997
2 65188  97.6038 117.0830 0002151  97.4201 263.1930 15.49331190  4065
STARLINK-34866          
1 65189U 25175R   25246.25002315 -.00255404  00000+0 -48245-2 0  9992
2 65189  97.6040 117.0839 0001855  98.6030 263.9293 15.49321546  4425
STARLINK-34917          
1 65190U 25175S   25246.25002315 -.00289869  00000+0 -54959-2 0  9995
2 65190  97.6035 117.0842 0001906 100.6484 263.8015 15.49340114  4321
STARLINK-34948          
1 65191U 25175T   25246.25002315 -.00258336  00000+0 -48814-2 0  9994
2 65191  97.6039 117.0854 0002058 101.6350 264.7398 15.49322365  4424
STARLINK-34955          
1 65192U 25175U   25246.25002315 -.00300835  00000+0 -57101-2 0  9996
2 65192  97.6040 117.0858 0002308 104.3009 263.9899 15.49345865  4371
STARLINK-34950          
1 65193U 25175V   25246.25002315 -.00264331  00000+0 -49979-2 0  9991
2 65193  97.6042 117.0874 0001852  81.3200 288.8943 15.49326661  4371
STARLINK-34926          
1 65194U 25175W   25246.25002315 -.00242484  00000+0 -45740-2 0  9999
2 65194  97.6040 117.0908 0002000  97.3973 280.4998 15.49314645  4375
STARLINK-34928          
1 65195U 25175X   25246.25002315 -.00278568  00000+0 -52743-2 0  9993
2 65195  97.6039 117.0897 0002205 102.3871 273.5822 15.49337212  4422
STARLINK-34927          
1 65196U 25175Y   25246.25002315 -.00259108  00000+0 -48961-2 0  9990
2 65196  97.6042 117.0877 0002344  76.3273 295.8104 15.49323290  4426
STARLINK-34952          
1 65197U 25175Z   25246.25002315 -.00302579  00000+0 -57443-2 0  9997
2 65197  97.6039 117.0888 0002109 101.6904 272.3632 15.49347671  4422
STARLINK-34981          
1 65198U 25176A   25246.25002315 -.01485549  00000+0 -19883-1 0  9994
2 65198  53.1603 308.2056 0000980  81.7510 307.0994 15.60407589  4384
STARLINK-34821          
1 65199U 25176B   25246.25002315 -.01528894  00000+0 -21234-1 0  9999
2 65199  53.1597 308.4157 0000872  75.5057 211.3302 15.59539768  4325
STARLINK-34865          
1 65200U 25176C   25246.25002315 -.01530840  00000+0 -21262-1 0  9997
2 65200  53.1590 308.4194 0000987  79.4881 205.4288 15.59542625  4386
STARLINK-34843          
1 65201U 25176D   25246.25002315 -.01527407  00000+0 -21212-1 0  9998
2 65201  53.1596 308.4118 0000899  79.9031 208.8501 15.59538922  4383
STARLINK-34905          
1 65202U 25176E   25246.25002315 -.01527043  00000+0 -21207-1 0  9999
2 65202  53.1595 308.4078 0000938  75.5474 215.1245 15.59537468  4385
STARLINK-34914          
1 65203U 25176F   25246.25002315 -.01527387  00000+0 -21211-1 0  9996
2 65203  53.1597 308.4037 0000913  76.2780 216.3081 15.59539255  4381
STARLINK-34787          
1 65204U 25176G   25246.25002315 -.01527101  00000+0 -21206-1 0  9995
2 65204  53.1597 308.3996 0000977  76.7193 217.7840 15.59538909  4381
STARLINK-34796          
1 65205U 25176H   25246.25002315 -.01529893  00000+0 -21248-1 0  9992
2 65205  53.1595 308.3882 0000991  75.4204 224.8318 15.59541644  4388
STARLINK-34763          
1 65206U 25176J   25246.25002315 -.01525121  00000+0 -21177-1 0  9994
2 65206  53.1595 308.3842 0000964  74.0151 228.1568 15.59536803  4386
STARLINK-34901          
1 65207U 25176K   25246.25002315 -.01527083  00000+0 -21207-1 0  9998
2 65207  53.1596 308.3955 0000923  77.9511 218.4701 15.59538398  4382
STARLINK-34841          
1 65208U 25176L   25246.25002315 -.01526476  00000+0 -21198-1 0  9993
2 65208  53.1597 308.3914 0000882  75.5499 222.7878 15.59538119  4386
STARLINK-34976          
1 65209U 25176M   25246.25002315 -.01529122  00000+0 -21236-1 0  9998
2 65209  53.1595 308.3797 0001055  80.3113 223.7751 15.59540235  4387
STARLINK-34941          
1 65210U 25176N   25246.25002315 -.01527964  00000+0 -21220-1 0  9995
2 65210  53.1596 308.3747 0000923  75.3555 230.6491 15.59539308  4389
STARLINK-34847          
1 65211U 25176P   25246.25002315 -.01604876  00000+0 -24095-1 0  9997
2 65211  53.1595 308.3651 0000905  71.6705 238.6869 15.57147158  4382
STARLINK-34897          
1 65212U 25176Q   25246.25002315 -.01609459  00000+0 -24168-1 0  9991
2 65212  53.1595 308.3610 0000863  79.4544 232.8180 15.57150522  4389
STARLINK-34907          
1 65213U 25176R   25246.25002315 -.01606630  00000+0 -24123-1 0  9991
2 65213  53.1596 308.3734 0000861  75.8489 230.6744 15.57148682  4380
STARLINK-34511          
1 65214U 25176S   25246.25002315 -.01611520  00000+0 -24200-1 0  9992
2 65214  53.1595 308.3767 0000904  80.4613 224.1433 15.57152870  4326
STARLINK-33913          
1 65215U 25176T   25246.25002315 -.01611864  00000+0 -24206-1 0  9990
2 65215  53.1595 308.3687 0000925  80.4595 227.9791 15.57152869  4382
STARLINK-34302          
1 65216U 25176U   25246.25002315 -.01609214  00000+0 -24163-1 0  9999
2 65216  53.1595 308.3568 0001001  75.9037 238.2839 15.57151241  4388
STARLINK-34871          
1 65217U 25176V   25246.25002315 -.01602384  00000+0 -24054-1 0  9990
2 65217  53.1596 308.3527 0000950  73.6811 242.4272 15.57146469  4386
STARLINK-34833          
1 65218U 25176W   25246.25002315 -.01605737  00000+0 -24109-1 0  9997
2 65218  53.1596 308.3488 0000866  74.1198 243.9046 15.57148135  4380
STARLINK-34960          
1 65219U 25176X   25246.25002315 -.01605549  00000+0 -24106-1 0  9996
2 65219  53.1596 308.3448 0000844  74.8022 245.1391 15.57147938  4383
STARLINK-34603          
1 65220U 25176Y   25246.25002315 -.01607494  00000+0 -24137-1 0  9993
2 65220  53.1595 308.3410 0000871  76.5478 245.3093 15.57149442  4380
STARLINK-34974          
1 65221U 25176Z   25246.25002315 -.01610345  00000+0 -24182-1 0  9993
2 65221  53.1594 308.3370 0000832  78.2906 245.4811 15.57152129  4382
STARLINK-34999          
1 65222U 25176AA  25246.25002315 -.01611604  00000+0 -24202-1 0  9996
2 65222  53.1595 308.3330 0001009  82.7138 242.9765 15.57151878  4384
STARLINK-34996          
1 65223U 25176AB  25246.25002315 -.01609930  00000+0 -24176-1 0  9996
2 65223  53.1595 308.3205 0000854  79.4329 252.0080 15.57151175  4380
STARLINK-34975          
1 65224U 25176AC  25246.25002315 -.01613064  00000+0 -24224-1 0  9994
2 65224  53.1595 308.3251 0001005  85.2658 244.2566 15.57153775  4381
STARLINK-34257          
1 65225U 25176AD  25246.25002315 -.01602489  00000+0 -24057-1 0  9998
2 65225  53.1597 308.3284 0000910  77.7573 249.8539 15.57145319  4326
SHIYAN-28B 02           
1 65226U 25177A   25246.04184033  .00000946  00000+0  19955-3 0  9995
2 65226  11.0012   4.8861 0004008 273.3057  86.6712 14.29094455  2391
SKYKRAFT-4E             
1 65227U 25154L   25246.16766623  .00018569  00000+0  17978-2 0  9997
2 65227  97.7084 311.3961 0006554 135.3879 224.7869 14.92767274  4437
HULIANWANG DIGUI 9A     
1 65228U 25178A   25246.26350611  .00000073  00000+0  74049-4 0  9996
2 65228  86.4940 110.7849 0001577  92.9471 267.1865 13.61818725  2276
HULIANWANG DIGUI 9B     
1 65229U 25178B   25246.25835808  .00000145  00000+0  16772-3 0  9990
2 65229  86.4959 110.7877 0001531  87.3390 272.7941 13.62011127  2275
HULIANWANG DIGUI 9C     
1 65230U 25178C   25246.25494998 -.00000210  00000+0 -29267-3 0  9991
2 65230  86.4898 110.7695 0001513  94.1107 266.0222 13.62199386  2271
HULIANWANG DIGUI 9D     
1 65231U 25178D   25241.77794399  .00000031  00000+0  17112-4 0  9998
2 65231  86.4892 112.4106 0005371 173.9796 186.1428 13.66453661  1663
HULIANWANG DIGUI 9E     
1 65232U 25178E   25241.70281900  .00000054  00000+0  45001-4 0  9994
2 65232  86.4977 112.4228 0005610 161.6425 198.4937 13.67245238  1652
CZ-6A R/B               
1 65233U 25178F   25246.21654249  .00000125  00000+0  76376-4 0  9994
2 65233  86.5052 110.5317 0105077  65.2280 295.9783 13.94578703  2325
CZ-4C R/B               
1 65234U 25177B   25230.04433057 -.00016443  00000+0 -31371-2 0  9996
2 65234  10.9947 108.8674 0151415   8.0992 352.1641 14.57479190    99
STARLINK-34842          
1 65235U 25179A   25246.25002315 -.02044074  00000+0 -34352-1 0  9992
2 65235  97.6025 286.8680 0001797  84.6025  78.7869 15.54862092  3526
STARLINK-34938          
1 65236U 25179B   25246.25002315 -.02033861  00000+0 -34167-1 0  9999
2 65236  97.6027 286.8687 0001905  82.1863  83.1250 15.54856050  3521
STARLINK-34958          
1 65237U 25179C   25246.25002315 -.02035634  00000+0 -34198-1 0  9994
2 65237  97.6027 286.8696 0001832  78.0079  89.2215 15.54858362  3621
STARLINK-34818          
1 65238U 25179D   25246.25002315 -.02028213  00000+0 -34073-1 0  9992
2 65238  97.6025 286.8707 0001658  75.8179  93.3398 15.54848819  3629
STARLINK-34964          
1 65239U 25179E   25246.25002315 -.02032484  00000+0 -34144-1 0  9997
2 65239  97.6026 286.8713 0001679  85.2817  85.7902 15.54855899  3470
STARLINK-34953          
1 65240U 25179F   25246.25002315 -.02032881  00000+0 -34151-1 0  9998
2 65240  97.6027 286.8722 0001822  78.2622  94.7325 15.54854805  3621
STARLINK-34969          
1 65241U 25179G   25246.25002315 -.02036881  00000+0 -34223-1 0  9993
2 65241  97.6027 286.8733 0001841  82.0001  92.9144 15.54857285  3465
STARLINK-34963          
1 65242U 25179H   25246.25002315 -.02038419  00000+0 -34249-1 0  9991
2 65242  97.6026 286.8740 0001883  79.9358  96.8980 15.54858894  3625
